CCSDS_OMM_VERS = 2.0
CREATION_DATE  = 
ORIGINATOR     = 

OBJECT_NAME    = STARLINK-35677
OBJECT_ID      = 2025-244Q
CENTER_NAME    = EARTH
REF_FRAME      = TEME
TIME_SYSTEM    = UTC
MEAN_ELEMENT_THEORY = SGP/SGP4

EPOCH          = 2025-11-06T06:00:02.000160
MEAN_MOTION    = 15.86117508
ECCENTRICITY   = .00008479
INCLINATION    = 53.1536
RA_OF_ASC_NODE = 90.4501
ARG_OF_PERICENTER = 65.6853
MEAN_ANOMALY   = 158.6397

EPHEMERIS_TYPE = 0
CLASSIFICATION_TYPE = U
NORAD_CAT_ID   = 66220
ELEMENT_SET_NO = 999
REV_AT_EPOCH   = 235
BSTAR          = -.53859445E-2
MEAN_MOTION_DOT = -.1213513E-1
MEAN_MOTION_DDOT = 0

CCSDS_OMM_VERS = 2.0
CREATION_DATE  = 
ORIGINATOR     = 

OBJECT_NAME    = STARLINK-35704
OBJECT_ID      = 2025-244R
CENTER_NAME    = EARTH
REF_FRAME      = TEME
TIME_SYSTEM    = UTC
MEAN_ELEMENT_THEORY = SGP/SGP4

EPOCH          = 2025-11-06T06:00:02.000160
MEAN_MOTION    = 15.86147997
ECCENTRICITY   = .00008513
INCLINATION    = 53.1535
RA_OF_ASC_NODE = 90.4457
ARG_OF_PERICENTER = 63.9043
MEAN_ANOMALY   = 162.4044

EPHEMERIS_TYPE = 0
CLASSIFICATION_TYPE = U
NORAD_CAT_ID   = 66221
ELEMENT_SET_NO = 999
REV_AT_EPOCH   = 235
BSTAR          = -.53970832E-2
MEAN_MOTION_DOT = -.1217373E-1
MEAN_MOTION_DDOT = 0

CCSDS_OMM_VERS = 2.0
CREATION_DATE  = 
ORIGINATOR     = 

OBJECT_NAME    = STARLINK-35666
OBJECT_ID      = 2025-244S
CENTER_NAME    = EARTH
REF_FRAME      = TEME
TIME_SYSTEM    = UTC
MEAN_ELEMENT_THEORY = SGP/SGP4

EPOCH          = 2025-11-06T06:00:02.000160
MEAN_MOTION    = 15.86240568
ECCENTRICITY   = .00008232
INCLINATION    = 53.1537
RA_OF_ASC_NODE = 90.4364
ARG_OF_PERICENTER = 60.4258
MEAN_ANOMALY   = 170.4017

EPHEMERIS_TYPE = 0
CLASSIFICATION_TYPE = U
NORAD_CAT_ID   = 66222
ELEMENT_SET_NO = 999
REV_AT_EPOCH   = 246
BSTAR          = -.56801008E-2
MEAN_MOTION_DOT = -.1278939E-1
MEAN_MOTION_DDOT = 0

CCSDS_OMM_VERS = 2.0
CREATION_DATE  = 
ORIGINATOR     = 

OBJECT_NAME    = STARLINK-35664
OBJECT_ID      = 2025-244T
CENTER_NAME    = EARTH
REF_FRAME      = TEME
TIME_SYSTEM    = UTC
MEAN_ELEMENT_THEORY = SGP/SGP4

EPOCH          = 2025-11-06T06:00:02.000160
MEAN_MOTION    = 15.86185947
ECCENTRICITY   = .00007509
INCLINATION    = 53.1534
RA_OF_ASC_NODE = 90.4407
ARG_OF_PERICENTER = 75.9726
MEAN_ANOMALY   = 152.8591

EPHEMERIS_TYPE = 0
CLASSIFICATION_TYPE = U
NORAD_CAT_ID   = 66223
ELEMENT_SET_NO = 999
REV_AT_EPOCH   = 246
BSTAR          = -.55620029E-2
MEAN_MOTION_DOT = -.1252362E-1
MEAN_MOTION_DDOT = 0

CCSDS_OMM_VERS = 2.0
CREATION_DATE  = 
ORIGINATOR     = 

OBJECT_NAME    = STARLINK-35733
OBJECT_ID      = 2025-244U
CENTER_NAME    = EARTH
REF_FRAME      = TEME
TIME_SYSTEM    = UTC
MEAN_ELEMENT_THEORY = SGP/SGP4

EPOCH          = 2025-11-06T06:00:02.000160
MEAN_MOTION    = 15.86290112
ECCENTRICITY   = .00007221
INCLINATION    = 53.1534
RA_OF_ASC_NODE = 90.4264
ARG_OF_PERICENTER = 72.6819
MEAN_ANOMALY   = 162.7897

EPHEMERIS_TYPE = 0
CLASSIFICATION_TYPE = U
NORAD_CAT_ID   = 66224
ELEMENT_SET_NO = 999
REV_AT_EPOCH   = 235
BSTAR          = -.58912401E-2
MEAN_MOTION_DOT = -.1323503E-1
MEAN_MOTION_DDOT = 0

CCSDS_OMM_VERS = 2.0
CREATION_DATE  = 
ORIGINATOR     = 

OBJECT_NAME    = STARLINK-35734
OBJECT_ID      = 2025-244V
CENTER_NAME    = EARTH
REF_FRAME      = TEME
TIME_SYSTEM    = UTC
MEAN_ELEMENT_THEORY = SGP/SGP4

EPOCH          = 2025-11-06T06:00:02.000160
MEAN_MOTION    = 15.86255148
ECCENTRICITY   = .00008782
INCLINATION    = 53.1535
RA_OF_ASC_NODE = 90.4309
ARG_OF_PERICENTER = 66.1927
MEAN_ANOMALY   = 167.1392

EPHEMERIS_TYPE = 0
CLASSIFICATION_TYPE = U
NORAD_CAT_ID   = 66225
ELEMENT_SET_NO = 999
REV_AT_EPOCH   = 235
BSTAR          = -.57840553E-2
MEAN_MOTION_DOT = -.1300421E-1
MEAN_MOTION_DDOT = 0

CCSDS_OMM_VERS = 2.0
CREATION_DATE  = 
ORIGINATOR     = 

OBJECT_NAME    = STARLINK-34466
OBJECT_ID      = 2025-244W
CENTER_NAME    = EARTH
REF_FRAME      = TEME
TIME_SYSTEM    = UTC
MEAN_ELEMENT_THEORY = SGP/SGP4

EPOCH          = 2025-11-06T06:00:02.000160
MEAN_MOTION    = 15.86329162
ECCENTRICITY   = .00008608
INCLINATION    = 53.1536
RA_OF_ASC_NODE = 90.4208
ARG_OF_PERICENTER = 63.8535
MEAN_ANOMALY   = 174.1349

EPHEMERIS_TYPE = 0
CLASSIFICATION_TYPE = U
NORAD_CAT_ID   = 66226
ELEMENT_SET_NO = 999
REV_AT_EPOCH   = 267
BSTAR          = -.60411069E-2
MEAN_MOTION_DOT = -.1355349E-1
MEAN_MOTION_DDOT = 0

CCSDS_OMM_VERS = 2.0
CREATION_DATE  = 
ORIGINATOR     = 

OBJECT_NAME    = STARLINK-34882
OBJECT_ID      = 2025-244X
CENTER_NAME    = EARTH
REF_FRAME      = TEME
TIME_SYSTEM    = UTC
MEAN_ELEMENT_THEORY = SGP/SGP4

EPOCH          = 2025-11-06T06:00:02.000160
MEAN_MOTION    = 15.86336084
ECCENTRICITY   = .00008366
INCLINATION    = 53.1536
RA_OF_ASC_NODE = 90.4164
ARG_OF_PERICENTER = 73.6382
MEAN_ANOMALY   = 166.4266

EPHEMERIS_TYPE = 0
CLASSIFICATION_TYPE = U
NORAD_CAT_ID   = 66227
ELEMENT_SET_NO = 999
REV_AT_EPOCH   = 267
BSTAR          = -.60170239E-2
MEAN_MOTION_DOT = -.1351008E-1
MEAN_MOTION_DDOT = 0

CCSDS_OMM_VERS = 2.0
CREATION_DATE  = 
ORIGINATOR     = 

OBJECT_NAME    = STARLINK-35731
OBJECT_ID      = 2025-244Y
CENTER_NAME    = EARTH
REF_FRAME      = TEME
TIME_SYSTEM    = UTC
MEAN_ELEMENT_THEORY = SGP/SGP4

EPOCH          = 2025-11-06T06:00:02.000160
MEAN_MOTION    = 15.86359915
ECCENTRICITY   = .00007841
INCLINATION    = 53.1534
RA_OF_ASC_NODE = 90.4126
ARG_OF_PERICENTER = 72.0084
MEAN_ANOMALY   = 169.9996

EPHEMERIS_TYPE = 0
CLASSIFICATION_TYPE = U
NORAD_CAT_ID   = 66228
ELEMENT_SET_NO = 999
REV_AT_EPOCH   = 235
BSTAR          = -.60241344E-2
MEAN_MOTION_DOT = -.1353766E-1
MEAN_MOTION_DDOT = 0

CCSDS_OMM_VERS = 2.0
CREATION_DATE  = 
ORIGINATOR     = 

OBJECT_NAME    = STARLINK-35758
OBJECT_ID      = 2025-244Z
CENTER_NAME    = EARTH
REF_FRAME      = TEME
TIME_SYSTEM    = UTC
MEAN_ELEMENT_THEORY = SGP/SGP4

EPOCH          = 2025-11-06T06:00:02.000160
MEAN_MOTION    = 15.86384565
ECCENTRICITY   = .00007826
INCLINATION    = 53.1536
RA_OF_ASC_NODE = 90.4081
ARG_OF_PERICENTER = 70.0954
MEAN_ANOMALY   = 174.1604

EPHEMERIS_TYPE = 0
CLASSIFICATION_TYPE = U
NORAD_CAT_ID   = 66229
ELEMENT_SET_NO = 999
REV_AT_EPOCH   = 235
BSTAR          = -.60900223E-2
MEAN_MOTION_DOT = -.1368155E-1
MEAN_MOTION_DDOT = 0

CCSDS_OMM_VERS = 2.0
CREATION_DATE  = 
ORIGINATOR     = 

OBJECT_NAME    = STARLINK-35736
OBJECT_ID      = 2025-244AA
CENTER_NAME    = EARTH
REF_FRAME      = TEME
TIME_SYSTEM    = UTC
MEAN_ELEMENT_THEORY = SGP/SGP4

EPOCH          = 2025-11-06T06:00:02.000160
MEAN_MOTION    = 15.86394001
ECCENTRICITY   = .0000792
INCLINATION    = 53.1535
RA_OF_ASC_NODE = 90.4029
ARG_OF_PERICENTER = 72.2971
MEAN_ANOMALY   = 174.3797

EPHEMERIS_TYPE = 0
CLASSIFICATION_TYPE = U
NORAD_CAT_ID   = 66230
ELEMENT_SET_NO = 999
REV_AT_EPOCH   = 235
BSTAR          = -.61106695E-2
MEAN_MOTION_DOT = -.137277E-1
MEAN_MOTION_DDOT = 0

CCSDS_OMM_VERS = 2.0
CREATION_DATE  = 
ORIGINATOR     = 

OBJECT_NAME    = STARLINK-35735
OBJECT_ID      = 2025-244AB
CENTER_NAME    = EARTH
REF_FRAME      = TEME
TIME_SYSTEM    = UTC
MEAN_ELEMENT_THEORY = SGP/SGP4

EPOCH          = 2025-11-06T06:00:02.000160
MEAN_MOTION    = 15.86412324
ECCENTRICITY   = .00008418
INCLINATION    = 53.1538
RA_OF_ASC_NODE = 90.3977
ARG_OF_PERICENTER = 62.3448
MEAN_ANOMALY   = 186.8272

EPHEMERIS_TYPE = 0
CLASSIFICATION_TYPE = U
NORAD_CAT_ID   = 66231
ELEMENT_SET_NO = 999
REV_AT_EPOCH   = 235
BSTAR          = -.62022432E-2
MEAN_MOTION_DOT = -.1391818E-1
MEAN_MOTION_DDOT = 0

