STARLINK-35677          
1 66220U 25244Q   25310.25002315 -.01213513  00000+0 -53859-2 0  9991
2 66220  53.1536  90.4501 0000847  65.6853 158.6397 15.86117508  2353
STARLINK-35704          
1 66221U 25244R   25310.25002315 -.01217373  00000+0 -53971-2 0  9995
2 66221  53.1535  90.4457 0000851  63.9043 162.4044 15.86147997  2357
STARLINK-35666          
1 66222U 25244S   25310.25002315 -.01278939  00000+0 -56801-2 0  9996
2 66222  53.1537  90.4364 0000823  60.4258 170.4017 15.86240568  2465
STARLINK-35664          
1 66223U 25244T   25310.25002315 -.01252362  00000+0 -55620-2 0  9997
2 66223  53.1534  90.4407 0000750  75.9726 152.8591 15.86185947  2461
STARLINK-35733          
1 66224U 25244U   25310.25002315 -.01323503  00000+0 -58912-2 0  9991
2 66224  53.1534  90.4264 0000722  72.6819 162.7897 15.86290112  2357
STARLINK-35734          
1 66225U 25244V   25310.25002315 -.01300421  00000+0 -57841-2 0  9996
2 66225  53.1535  90.4309 0000878  66.1927 167.1392 15.86255148  2358
STARLINK-34466          
1 66226U 25244W   25310.25002315 -.01355349  00000+0 -60411-2 0  9993
2 66226  53.1536  90.4208 0000860  63.8535 174.1349 15.86329162  2671
STARLINK-34882          
1 66227U 25244X   25310.25002315 -.01351008  00000+0 -60170-2 0  9994
2 66227  53.1536  90.4164 0000836  73.6382 166.4266 15.86336084  2678
STARLINK-35731          
1 66228U 25244Y   25310.25002315 -.01353766  00000+0 -60241-2 0  9997
2 66228  53.1534  90.4126 0000784  72.0084 169.9996 15.86359915  2350
STARLINK-35758          
1 66229U 25244Z   25310.25002315 -.01368155  00000+0 -60900-2 0  9998
2 66229  53.1536  90.4081 0000782  70.0954 174.1604 15.86384565  2358
STARLINK-35736          
1 66230U 25244AA  25310.25002315 -.01372770  00000+0 -61107-2 0  9998
2 66230  53.1535  90.4029 0000792  72.2971 174.3797 15.86394001  2356
STARLINK-35735          
1 66231U 25244AB  25310.25002315 -.01391818  00000+0 -62022-2 0  9990
2 66231  53.1538  90.3977 0000841  62.3448 186.8272 15.86412324  2350
